OBJECT_NAME,OBJECT_ID,EPOCH,MEAN_MOTION,ECCENTRICITY,INCLINATION,RA_OF_ASC_NODE,ARG_OF_PERICENTER,MEAN_ANOMALY,EPHEMERIS_TYPE,CLASSIFICATION_TYPE,NORAD_CAT_ID,ELEMENT_SET_NO,REV_AT_EPOCH,BSTAR,MEAN_MOTION_DOT,MEAN_MOTION_DDOT
STARLINK-1444,2020-035E,2024-10-18T23:09:01.125504,15.35803769,0.0009153,53.0609,155.0817,116.759,243.435,0,U,45661,999,24231,5.53E-03,2.01E-03,0
STARLINK-1445,2020-035F,2024-10-19T06:00:00.999648,15.31196024,0.0001177,53.0549,178.7114,91.3569,15.0593,0,U,45662,999,24205,3.08E-02,1.02E-02,0
STARLINK-1446,2020-035G,2024-10-18T17:26:48.321888,15.10096401,0.0004048,53.0544,181.314,94.7333,265.412,0,U,45663,999,24233,8.45E-04,1.37E-04,0
STARLINK-1448,2020-035J,2024-10-19T09:36:56.570400,15.0642055,0.0001862,53.0532,179.4429,102.3445,257.7752,0,U,45665,999,24201,2.07E-03,3.07E-04,0
STARLINK-1449,2020-035K,2024-10-19T00:00:00.999648,15.33641094,0.0009851,53.0393,155.0288,126.0011,336.7257,0,U,45666,999,24232,1.42E-03,4.69E-04,0
STARLINK-1451,2020-035M,2024-10-19T03:20:09.304512,15.06402154,0.0001551,53.0534,180.9303,80.9392,279.1773,0,U,45668,999,24197,4.27E-04,6.09E-05,0
STARLINK-1452,2020-035N,2024-10-19T10:08:47.398848,15.0642103,0.0001775,53.0526,179.3405,86.3055,273.8137,0,U,45669,999,24200,2.82E-03,4.20E-04,0
STARLINK-1453,2020-035P,2024-10-19T00:23:36.288672,15.06400916,0.0001487,53.0515,151.1605,94.1993,265.9166,0,U,45670,999,24237,4.77E-04,6.83E-05,0
STARLINK-1454,2020-035Q,2024-10-19T10:14:05.941824,15.06435231,0.0001243,53.0529,179.3234,91.2949,268.8182,0,U,45671,999,24201,3.83E-03,5.73E-04,0
STARLINK-1456,2020-035S,2024-10-19T02:37:37.299936,15.06424548,0.0000996,53.0567,180.7464,76.5172,283.5928,0,U,45673,999,24197,1.03E-03,1.50E-04,0
STARLINK-1457,2020-035T,2024-10-19T02:48:15.302592,15.06391284,0.0001267,53.0523,180.7152,79.2752,280.838,0,U,45674,999,24198,2.82E-03,4.20E-04,0
STARLINK-1458,2020-035U,2024-10-19T02:32:19.125024,15.06413,0.0001498,53.053,180.7637,84.9838,275.1322,0,U,45675,999,24196,1.50E-03,2.22E-04,0
STARLINK-1460,2020-035V,2024-10-19T01:49:51.682368,15.06382989,0.0001518,53.0529,180.8956,90.9543,269.162,0,U,45676,999,24196,1.19E-03,1.75E-04,0
STARLINK-1392,2020-035W,2024-10-19T10:03:29.959200,15.06418921,0.0001437,53.0526,179.356,84.8764,275.2389,0,U,45677,999,24201,2.80E-03,4.17E-04,0
STARLINK-1393,2020-035X,2024-10-19T01:56:30.152256,15.06393868,0.0001538,53.0527,170.8747,90.6721,269.4445,0,U,45678,999,24210,1.19E-03,1.74E-04,0
STARLINK-1394,2020-035Y,2024-10-19T02:01:48.404064,15.06415613,0.0001207,53.0579,170.8579,103.7205,256.3919,0,U,45679,999,24211,6.39E-04,9.25E-05,0
STARLINK-1395,2020-035Z,2024-10-19T08:34:34.639104,15.06409853,0.0001137,53.0559,169.6349,73.8458,286.2656,0,U,45680,999,24214,1.44E-03,2.13E-04,0
STARLINK-1397,2020-035AB,2024-10-19T08:39:53.266752,15.06402694,0.0002002,53.0524,169.618,89.5976,270.5243,0,U,45682,999,24214,1.05E-03,1.54E-04,0
STARLINK-1399,2020-035AC,2024-10-18T22:40:06.517632,15.06420412,0.0003348,53.0512,171.4869,92.4739,267.6633,0,U,45683,999,24208,7.87E-04,1.15E-04,0
STARLINK-1401,2020-035AD,2024-10-19T06:24:02.744352,15.53481996,0.0005608,53.046,101.3809,133.4263,226.7214,0,U,45684,999,24311,1.69E-03,1.10E-03,0
STARLINK-1402,2020-035AE,2024-10-19T09:08:16.825920,15.06423486,0.0001387,53.0529,163.9494,95.3904,264.7243,0,U,45685,999,24223,1.67E-03,2.47E-04,0
STARLINK-1404,2020-035AF,2024-10-19T02:38:57.718464,15.06415359,0.0001341,53.0554,170.7455,98.2225,261.8916,0,U,45686,999,24211,8.58E-04,1.25E-04,0
STARLINK-1408,2020-035AH,2024-10-19T02:34:33.845088,15.54668034,0.0006662,53.0728,69.1322,281.2089,78.8173,0,U,45688,999,24356,2.61E-03,1.80E-03,0
STARLINK-1413,2020-035AJ,2024-10-18T22:18:52.655904,15.064011,0.0000916,53.0508,171.5507,96.8281,263.2812,0,U,45689,999,24208,1.12E-04,1.39E-05,0
STARLINK-1414,2020-035AK,2024-10-19T08:29:19.063104,15.06403192,0.0001426,53.0497,169.8724,93.0439,267.0713,0,U,45690,999,24208,1.18E-03,1.74E-04,0
STARLINK-1417,2020-035AN,2024-10-19T01:24:39.417120,15.06399197,0.0001239,53.0524,170.9719,97.8547,262.2582,0,U,45693,999,24210,5.35E-04,7.69E-05,0
STARLINK-1420,2020-035AQ,2024-10-19T07:48:05.947776,15.0640518,0.0001835,53.0531,149.7684,95.9025,264.2173,0,U,45695,999,24242,4.39E-05,3.73E-06,0
STARLINK-1422,2020-035AR,2024-10-18T22:29:29.747040,15.06389542,0.0001985,53.0525,171.5166,96.7679,263.3536,0,U,45696,999,24208,9.89E-04,1.45E-04,0
STARLINK-1351,2020-035AS,2024-10-18T23:30:32.223168,15.06397327,0.0001291,53.0582,151.331,96.2489,263.8648,0,U,45697,999,24237,2.12E-04,2.87E-05,0
STARLINK-1398,2020-035AU,2024-10-18T22:58:40.893600,15.06400553,0.0001868,53.0492,151.4246,118.501,241.6167,0,U,45699,999,24241,3.78E-04,5.36E-05,0
STARLINK-1400,2020-035AV,2024-10-19T00:28:55.955712,15.06401294,0.0003403,53.0448,151.1459,92.1926,267.9452,0,U,45700,999,24237,4.06E-04,5.78E-05,0
STARLINK-1403,2020-035AW,2024-10-18T22:00:18.203040,15.06403792,0.0001072,53.0528,151.6106,83.4941,276.617,0,U,45701,999,24276,5.21E-04,7.49E-05,0
STARLINK-1405,2020-035AX,2024-10-18T21:32:32.146656,15.06894276,0.0000903,53.0518,151.6864,107.2483,252.8605,0,U,45702,999,24275,4.31E-03,6.54E-04,0
STARLINK-1407,2020-035AY,2024-10-18T21:28:25.633632,15.06450333,0.0001276,53.0517,151.7078,77.2681,282.845,0,U,45703,999,24276,1.29E-03,1.91E-04,0
STARLINK-1411,2020-035BB,2024-10-19T00:07:41.009664,15.06403094,0.0000739,53.056,151.2113,90.6408,269.4666,0,U,45706,999,24237,3.37E-04,4.74E-05,0
STARLINK-1412,2020-035BC,2024-10-18T23:55:41.569824,15.06397818,0.0000881,53.0565,151.2038,99.6322,260.4767,0,U,45707,999,24237,8.39E-05,9.68E-06,0
STARLINK-1418,2020-035BD,2024-10-18T21:49:40.997856,15.06394942,0.000187,53.0569,151.6443,91.4106,268.7097,0,U,45708,999,24236,3.33E-04,4.69E-05,0
STARLINK-1423,2020-035BF,2024-10-18T22:37:27.922656,15.06412837,0.0001264,53.0515,151.494,84.3826,275.7307,0,U,45710,999,24236,4.36E-04,6.23E-05,0
STARLINK-1433,2020-035BG,2024-10-19T01:22:00.234624,15.06396538,0.0001918,53.0552,150.9792,73.6831,286.4369,0,U,45711,999,24238,7.91E-05,8.97E-06,0
STARLINK-1434,2020-035BH,2024-10-18T23:41:08.866752,15.06405954,0.0001482,53.0541,151.2957,72.3336,287.7814,0,U,45712,999,24237,4.39E-04,6.26E-05,0
HAIYANG-1D,2020-036A,2024-10-19T09:27:02.543616,14.34143287,0.0003448,98.6006,233.1399,85.6301,274.5278,0,U,45721,999,22814,4.24E-04,1.14E-05,0
ANDESITE,2020-037D,2024-10-18T18:04:11.677152,14.99674141,0.0011337,97.7757,111.3445,49.5936,310.6275,0,U,45726,999,23456,8.04E-04,9.87E-05,0
M2 PATHFINDER,2020-037E,2024-10-19T00:53:48.850944,14.98888409,0.001245,97.781,109.0107,74.9442,285.3158,0,U,45727,999,23448,1.03E-03,1.24E-04,0
STARLINK-1465,2020-038B,2024-10-19T10:07:28.997760,15.06420677,0.0001742,53.0542,349.3409,68.7298,291.3877,0,U,45731,999,24085,1.55E-03,2.29E-04,0
STARLINK-1467,2020-038D,2024-10-19T14:00:01.000224,15.77818232,0.0008679,53.0588,237.6862,81.3209,321.7656,0,U,45733,999,24260,2.08E-03,3.72E-03,0
STARLINK-1468,2020-038E,2024-10-19T03:40:48.474912,15.61808732,0.0009336,53.0637,264.2949,20.7687,339.3704,0,U,45734,999,24219,1.73E-03,1.56E-03,0
STARLINK-1471,2020-038F,2024-10-19T04:06:32.254560,15.06399362,0.0001784,53.0554,350.4678,106.3464,253.7721,0,U,45735,999,24096,6.48E-04,9.39E-05,0
STARLINK-1474,2020-038J,2024-10-19T06:00:00.999648,15.0850535,0.0001293,53.0538,350.0953,81.0782,56.4618,0,U,45738,999,24097,3.57E-02,5.99E-03,0
STARLINK-1475,2020-038K,2024-10-19T07:10:43.179168,15.2209554,0.000607,53.0573,300.0308,45.1493,314.9995,0,U,45739,999,24152,3.13E-03,7.31E-04,0
STARLINK-1479,2020-038L,2024-10-19T04:01:12.961632,15.06399194,0.0001591,53.0548,350.4842,86.2827,273.8344,0,U,45740,999,24096,2.00E-04,2.70E-05,0
STARLINK-1480,2020-038M,2024-10-19T04:54:18.625536,15.06391104,0.0001469,53.0552,350.3219,99.9231,260.1924,0,U,45741,999,24097,4.27E-04,6.08E-05,0
STARLINK-1481,2020-038N,2024-10-19T09:30:17.254656,15.06408508,0.0001537,53.0552,349.4596,88.1147,272.0018,0,U,45742,999,24099,5.66E-04,8.16E-05,0
STARLINK-1483,2020-038P,2024-10-19T14:00:01.000224,15.64545316,0.0007069,53.0413,290.1273,7.5389,115.4524,0,U,45743,999,24170,2.12E-03,2.14E-03,0
STARLINK-1500,2020-038Q,2024-10-19T10:49:56.494848,15.06392307,0.0001474,53.0547,349.2112,86.0864,274.0293,0,U,45744,999,24081,1.44E-04,1.86E-05,0
STARLINK-1503,2020-038R,2024-10-19T10:34:00.658560,15.06432946,0.0001349,53.0547,349.2581,65.4823,294.6306,0,U,45745,999,24081,4.83E-03,7.25E-04,0
STARLINK-1504,2020-038S,2024-10-19T04:18:09.704736,15.14844765,0.000184,53.0536,344.7368,27.2615,332.8474,0,U,45746,999,24085,1.06E-03,1.96E-04,0
STARLINK-1506,2020-038T,2024-10-19T04:38:22.693344,15.06404084,0.0001314,53.0552,350.3698,101.694,258.4197,0,U,45747,999,24077,7.90E-04,1.15E-04,0
STARLINK-1507,2020-038U,2024-10-18T19:53:35.380608,15.27439459,0.00082,53.0542,333.6604,347.8518,12.2281,0,U,45748,999,24098,4.50E-03,1.24E-03,0
STARLINK-1391,2020-038W,2024-10-19T09:48:52.408224,15.06402468,0.0001977,53.0556,329.403,105.6835,254.4372,0,U,45750,999,24128,3.11E-04,4.35E-05,0
STARLINK-1464,2020-038X,2024-10-19T09:43:34.165920,15.06394983,0.0001847,53.0547,329.4156,81.5965,278.5234,0,U,45751,999,24128,9.48E-04,1.39E-04,0
STARLINK-1476,2020-038Z,2024-10-19T09:59:29.152032,15.06405817,0.0001509,53.054,329.3668,95.1017,265.0144,0,U,45753,999,24128,6.25E-04,9.04E-05,0
STARLINK-1477,2020-038AA,2024-10-19T10:04:48.645408,15.06396203,0.0001586,53.0553,329.3505,96.1144,264.0026,0,U,45754,999,24113,2.87E-04,4.00E-05,0
STARLINK-1478,2020-038AB,2024-10-19T08:55:47.807040,15.06406062,0.0001497,53.054,329.5644,94.5077,265.6083,0,U,45755,999,24127,1.25E-03,1.84E-04,0
STARLINK-1484,2020-038AC,2024-10-19T02:28:24.053952,15.20223303,0.0003355,53.0552,318.2077,43.4743,316.6517,0,U,45756,999,24141,1.69E-03,3.69E-04,0
STARLINK-1486,2020-038AD,2024-10-19T06:00:00.999648,15.59203678,0.0008101,53.0709,247.4026,78.8954,265.7545,0,U,45757,999,24244,2.86E-03,2.35E-03,0
STARLINK-1487,2020-038AE,2024-10-19T04:41:43.292544,15.41948265,0.0002349,53.0354,249.4191,66.4347,293.6903,0,U,45758,999,24239,1.36E-03,5.87E-04,0
